{
  "norad_id": 31125,
  "name": "SAUDICOMSAT 3",
  "history": [
    {
      "epoch": "2026-03-28T19:55:10.476768",
      "apogee_km": 686.0811166241401,
      "perigee_km": 632.3994397559254,
      "latitude_deg": 65.82878908522339,
      "longitude_deg": -107.82169248000719,
      "semi_major_axis_km": 7037.3772781900325,
      "eccentricity": 0.00381404,
      "inclination_deg": 98.3079,
      "raan_deg": 61.6749,
      "arg_perigee_deg": 307.459,
      "mean_anomaly_deg": 52.3148,
      "mean_motion_rev_day": 14.70572737
    },
    {
      "epoch": "2026-03-28T21:33:09.226944",
      "apogee_km": 686.0829295219519,
      "perigee_km": 632.3961912182003,
      "latitude_deg": 78.16662951445747,
      "longitude_deg": -101.2897478400264,
      "semi_major_axis_km": 7037.376560370076,
      "eccentricity": 0.0038144,
      "inclination_deg": 98.3079,
      "raan_deg": 61.7442,
      "arg_perigee_deg": 307.246,
      "mean_anomaly_deg": 52.5268,
      "mean_motion_rev_day": 14.70572962
    }
  ]
}